{
  "type": "FeatureCollection",
  "features": [
    {
      "type": "Feature",
      "properties": {
        "norad_id": 41589,
        "name": "EUTELSAT 117 WEST B (WAAS/PRN 131)",
        "group": "gnss",
        "lat": 0.012645227413586181,
        "lon": -97.71547995915398,
        "alt_km": 35786.51117802664,
        "timestamp": "2025-12-16T19:34:24.509671+00:00",
        "meta_object_name": "EUTELSAT 117 WEST B (WAAS/PRN 131)",
        "meta_object_id": "2016-038B",
        "meta_epoch": "2025-12-14T23:08:05.366400",
        "meta_mean_motion": 1.00269355,
        "meta_eccentricity": 1.202e-05,
        "meta_inclination": 0.0103,
        "meta_ra_of_asc_node": 155.4943,
        "meta_arg_of_pericenter": 36.5325,
        "meta_mean_anomaly": 121.8783,
        "meta_ephemeris_type": 0,
        "meta_classification_type": "U",
        "meta_norad_cat_id": 41589,
        "meta_element_set_no": 999,
        "meta_rev_at_epoch": 3481,
        "meta_bstar": 0,
        "meta_mean_motion_dot": 9e-08,
        "meta_mean_motion_ddot": 0,
        "tle_line1": "1 41589U 16038B   25348.96395100  .00000009  00000+0  00000+0 0  9997",
        "tle_line2": "2 41589   0.0103 155.4943 0000120  36.5325 121.8783  1.00269355 34818"
      },
      "geometry": {
        "type": "Point",
        "coordinates": [
          -97.71547995915398,
          0.012645227413586181
        ]
      }
    },
    {
      "type": "Feature",
      "properties": {
        "norad_id": 41859,
        "name": "GSAT0207 (GALILEO 15)",
        "group": "gnss",
        "lat": -42.145772222199405,
        "lon": 67.48234176782576,
        "alt_km": 23220.72195612722,
        "timestamp": "2025-12-16T19:34:24.509685+00:00",
        "meta_object_name": "GSAT0207 (GALILEO 15)",
        "meta_object_id": "2016-069A",
        "meta_epoch": "2025-12-13T09:14:27.730752",
        "meta_mean_motion": 1.70474447,
        "meta_eccentricity": 0.00022423,
        "meta_inclination": 55.3826,
        "meta_ra_of_asc_node": 106.2323,
        "meta_arg_of_pericenter": 321.9482,
        "meta_mean_anomaly": 38.0041,
        "meta_ephemeris_type": 0,
        "meta_classification_type": "U",
        "meta_norad_cat_id": 41859,
        "meta_element_set_no": 999,
        "meta_rev_at_epoch": 5623,
        "meta_bstar": 0,
        "meta_mean_motion_dot": 0,
        "meta_mean_motion_ddot": 0,
        "tle_line1": "1 41859U 16069A   25347.38504318  .00000000  00000+0  00000+0 0  9990",
        "tle_line2": "2 41859  55.3826 106.2323 0002242 321.9482  38.0041  1.70474447 56234"
      },
      "geometry": {
        "type": "Point",
        "coordinates": [
          67.48234176782576,
          -42.145772222199405
        ]
      }
    },
    {
      "type": "Feature",
      "properties": {
        "norad_id": 41860,
        "name": "GSAT0212 (GALILEO 16)",
        "group": "gnss",
        "lat": 28.350164136868553,
        "lon": 127.97960142607576,
        "alt_km": 23212.462479278143,
        "timestamp": "2025-12-16T19:34:24.509697+00:00",
        "meta_object_name": "GSAT0212 (GALILEO 16)",
        "meta_object_id": "2016-069B",
        "meta_epoch": "2025-12-14T09:53:04.896672",
        "meta_mean_motion": 1.70474682,
        "meta_eccentricity": 0.00021233,
        "meta_inclination": 55.3808,
        "meta_ra_of_asc_node": 106.1993,
        "meta_arg_of_pericenter": 25.6121,
        "meta_mean_anomaly": 334.3636,
        "meta_ephemeris_type": 0,
        "meta_classification_type": "U",
        "meta_norad_cat_id": 41860,
        "meta_element_set_no": 999,
        "meta_rev_at_epoch": 5650,
        "meta_bstar": 0,
        "meta_mean_motion_dot": -4e-08,
        "meta_mean_motion_ddot": 0,
        "tle_line1": "1 41860U 16069B   25348.41186223 -.00000004  00000+0  00000+0 0  9993",
        "tle_line2": "2 41860  55.3808 106.1993 0002123  25.6121 334.3636  1.70474682 56507"
      },
      "geometry": {
        "type": "Point",
        "coordinates": [
          127.97960142607576,
          28.350164136868553
        ]
      }
    },
    {
      "type": "Feature",
      "properties": {
        "norad_id": 41861,
        "name": "GSAT0213 (GALILEO 17)",
        "group": "gnss",
        "lat": 8.51674102822259,
        "lon": -79.80322196358881,
        "alt_km": 23224.10047786603,
        "timestamp": "2025-12-16T19:34:24.509755+00:00",
        "meta_object_name": "GSAT0213 (GALILEO 17)",
        "meta_object_id": "2016-069C",
        "meta_epoch": "2025-12-14T04:37:41.330208",
        "meta_mean_motion": 1.70474935,
        "meta_eccentricity": 0.00024236,
        "meta_inclination": 55.3829,
        "meta_ra_of_asc_node": 106.2129,
        "meta_arg_of_pericenter": 283.222,
        "meta_mean_anomaly": 76.7169,
        "meta_ephemeris_type": 0,
        "meta_classification_type": "U",
        "meta_norad_cat_id": 41861,
        "meta_element_set_no": 999,
        "meta_rev_at_epoch": 5636,
        "meta_bstar": 0,
        "meta_mean_motion_dot": -4e-08,
        "meta_mean_motion_ddot": 0,
        "tle_line1": "1 41861U 16069C   25348.19283947 -.00000004  00000+0  00000+0 0  9990",
        "tle_line2": "2 41861  55.3829 106.2129 0002423 283.2220  76.7169  1.70474935 56361"
      },
      "geometry": {
        "type": "Point",
        "coordinates": [
          -79.80322196358881,
          8.51674102822259
        ]
      }
    },
    {
      "type": "Feature",
      "properties": {
        "norad_id": 41862,
        "name": "GSAT0214 (GALILEO 18)",
        "group": "gnss",
        "lat": 54.16176824727656,
        "lon": 178.94784101295681,
        "alt_km": 23219.437348384065,
        "timestamp": "2025-12-16T19:34:24.509771+00:00",
        "meta_object_name": "GSAT0214 (GALILEO 18)",
        "meta_object_id": "2016-069D",
        "meta_epoch": "2025-12-14T22:12:36.299232",
        "meta_mean_motion": 1.70474813,
        "meta_eccentricity": 0.00014239,
        "meta_inclination": 55.3815,
        "meta_ra_of_asc_node": 106.1855,
        "meta_arg_of_pericenter": 290.4821,
        "meta_mean_anomaly": 69.4663,
        "meta_ephemeris_type": 0,
        "meta_classification_type": "U",
        "meta_norad_cat_id": 41862,
        "meta_element_set_no": 999,
        "meta_rev_at_epoch": 5650,
        "meta_bstar": 0,
        "meta_mean_motion_dot": -6e-08,
        "meta_mean_motion_ddot": 0,
        "tle_line1": "1 41862U 16069D   25348.92542013 -.00000006  00000+0  00000+0 0  9996",
        "tle_line2": "2 41862  55.3815 106.1855 0001423 290.4821  69.4663  1.70474813 56507"
      },
      "geometry": {
        "type": "Point",
        "coordinates": [
          178.94784101295681,
          54.16176824727656
        ]
      }
    },
    {
      "type": "Feature",
      "properties": {
        "norad_id": 42709,
        "name": "SES-15 (WAAS/PRN 133)",
        "group": "gnss",
        "lat": -0.04148249717169191,
        "lon": -109.85627555407738,
        "alt_km": 35783.52863329526,
        "timestamp": "2025-12-16T19:34:24.509783+00:00",
        "meta_object_name": "SES-15 (WAAS/PRN 133)",
        "meta_object_id": "2017-026A",
        "meta_epoch": "2025-12-14T23:04:35.701248",
        "meta_mean_motion": 1.00273624,
        "meta_eccentricity": 7.276e-05,
        "meta_inclination": 0.0176,
        "meta_ra_of_asc_node": 342.8918,
        "meta_arg_of_pericenter": 215.1635,
        "meta_mean_anomaly": 102.7985,
        "meta_ephemeris_type": 0,
        "meta_classification_type": "U",
        "meta_norad_cat_id": 42709,
        "meta_element_set_no": 999,
        "meta_rev_at_epoch": 558,
        "meta_bstar": 0,
        "meta_mean_motion_dot": 8e-07,
        "meta_mean_motion_ddot": 0,
        "tle_line1": "1 42709U 17026A   25348.96152432  .00000080  00000+0  00000+0 0  9998",
        "tle_line2": "2 42709   0.0176 342.8918 0000727 215.1635 102.7985  1.00273624  5587"
      },
      "geometry": {
        "type": "Point",
        "coordinates": [
          -109.85627555407738,
          -0.04148249717169191
        ]
      }
    },
    {
      "type": "Feature",
      "properties": {
        "norad_id": 42738,
        "name": "QZS-2 (QZSS/PRN 194)",
        "group": "gnss",
        "lat": -39.45156091216946,
        "lon": 164.01931825467645,
        "alt_km": 32627.360429879594,
        "timestamp": "2025-12-16T19:34:24.509795+00:00",
        "meta_object_name": "QZS-2 (QZSS/PRN 194)",
        "meta_object_id": "2017-028A",
        "meta_epoch": "2025-12-15T14:01:12.084960",
        "meta_mean_motion": 1.00282297,
        "meta_eccentricity": 0.0757053,
        "meta_inclination": 39.7095,
        "meta_ra_of_asc_node": 245.8416,
        "meta_arg_of_pericenter": 269.5062,
        "meta_mean_anomaly": 281.3517,
        "meta_ephemeris_type": 0,
        "meta_classification_type": "U",
        "meta_norad_cat_id": 42738,
        "meta_element_set_no": 999,
        "meta_rev_at_epoch": 578,
        "meta_bstar": 0,
        "meta_mean_motion_dot": -1.57e-06,
        "meta_mean_motion_ddot": 0,
        "tle_line1": "1 42738U 17028A   25349.58416765 -.00000157  00000+0  00000+0 0  9999",
        "tle_line2": "2 42738  39.7095 245.8416 0757053 269.5062 281.3517  1.00282297  5784"
      },
      "geometry": {
        "type": "Point",
        "coordinates": [
          164.01931825467645,
          -39.45156091216946
        ]
      }
    }
  ]
}